OBJECT_NAME,OBJECT_ID,EPOCH,MEAN_MOTION,ECCENTRICITY,INCLINATION,RA_OF_ASC_NODE,ARG_OF_PERICENTER,MEAN_ANOMALY,EPHEMERIS_TYPE,CLASSIFICATION_TYPE,NORAD_CAT_ID,ELEMENT_SET_NO,REV_AT_EPOCH,BSTAR,MEAN_MOTION_DOT,MEAN_MOTION_DDOT
STARLINK-2196,2021-017BD,2024-02-07T16:28:00.189984,15.06407542,.0001636,53.0536,37.8933,74.2327,285.8842,0,U,47773,999,16288,.17076E-3,.2263E-4,0
STARLINK-2197,2021-017BE,2024-02-07T16:22:40.858176,15.06419183,.0001542,53.0543,37.9129,96.9063,263.2101,0,U,47774,999,16289,.25582E-3,.3533E-4,0
STARLINK-2198,2021-017BF,2024-02-07T05:29:50.263872,15.06406904,.0001426,53.0544,39.9457,90.3611,269.7541,0,U,47775,999,16287,.22144E-3,.3019E-4,0
STARLINK-2210,2021-017BH,2024-02-07T06:13:36.928416,15.06416742,.0001551,53.0566,29.8072,101.4410,258.6754,0,U,47777,999,16298,.12257E-3,.1545E-4,0
STARLINK-2211,2021-017BJ,2024-02-07T16:34:38.546688,15.06397257,.000137,53.0542,27.8727,88.2839,271.8307,0,U,47778,999,16304,.10535E-3,.1288E-4,0
STARLINK-2213,2021-017BL,2024-02-07T09:14:05.563104,15.06407180,.0001709,53.0565,29.2487,91.4648,268.6537,0,U,47780,999,16303,.46837E-3,.6703E-4,0
STARLINK-2257,2021-018A,2024-02-07T18:26:05.625888,15.06403220,.0001443,53.0530,67.5238,91.8048,268.3106,0,U,47787,999,16190,.49254E-3,.7063E-4,0
STARLINK-2314,2021-018B,2024-02-07T17:07:08.300928,15.06407346,.0001223,53.0535,42.7731,87.9332,272.1797,0,U,47788,999,16226,.34771E-3,.4902E-4,0
STARLINK-2315,2021-018C,2024-02-07T07:09:21.680640,15.06407762,.0001749,53.0560,49.6367,86.5862,273.5327,0,U,47789,999,16212,.22235E-3,.3033E-4,0
STARLINK-2319,2021-018D,2024-02-07T09:44:36.563136,15.06413633,.0001736,53.0552,39.1520,103.3600,256.7583,0,U,47790,999,16228,.23972E-3,.3292E-4,0
STARLINK-2322,2021-018E,2024-02-07T08:36:56.591712,15.06407835,.0001489,53.0539,69.3656,78.7084,281.4072,0,U,47791,999,16150,.65673E-3,.9516E-4,0
STARLINK-2334,2021-018F,2024-02-07T07:19:58.535040,15.06415910,.0001581,53.0549,49.6050,95.7423,264.3746,0,U,47792,999,16212,.31281E-3,.4383E-4,0
STARLINK-2338,2021-018G,2024-02-07T17:14:26.413728,15.06402515,.0001381,53.0549,47.7532,81.3898,278.7248,0,U,47793,999,16217,.16527E-3,.2181E-4,0
STARLINK-2341,2021-018H,2024-02-07T17:19:45.101856,15.06399150,.0001422,53.0542,47.7288,78.0040,282.1108,0,U,47794,999,16218,.12979E-3,.1652E-4,0
STARLINK-2347,2021-018J,2024-02-07T17:03:50.061312,15.06399166,.0001665,53.0545,47.7822,81.3132,278.8046,0,U,47795,999,16223,.66057E-4,.702E-5,0
STARLINK-2377,2021-018L,2024-02-07T19:53:01.059072,15.06400416,.0001474,53.0524,72.2576,76.6017,283.5136,0,U,47797,999,16184,.44377E-3,.6335E-4,0
STARLINK-2379,2021-018M,2024-02-07T17:40:58.725984,15.06405239,.0001501,53.0536,47.6694,80.2270,279.8888,0,U,47798,999,16218,.19417E-3,.2612E-4,0
STARLINK-2380,2021-018N,2024-02-07T17:35:40.322112,15.06398246,.0001956,53.0544,47.6834,95.7540,264.3672,0,U,47799,999,16217,.26021E-3,.3596E-4,0
STARLINK-2381,2021-018P,2024-02-07T18:07:31.622304,15.06399532,.0001576,53.0532,47.5870,77.5596,282.5570,0,U,47800,999,16218,.26944E-3,.3734E-4,0
STARLINK-2382,2021-018Q,2024-02-07T17:21:45.759456,15.06386765,.0001553,53.0546,52.8139,92.0669,268.0498,0,U,47801,999,16211,.39402E-3,.559E-4,0
STARLINK-2383,2021-018R,2024-02-07T08:54:51.167520,15.06410553,.0001571,53.0545,74.3046,86.6438,273.4730,0,U,47802,999,16178,.66083E-3,.9578E-4,0
STARLINK-2384,2021-018S,2024-02-07T07:14:40.168320,15.06406976,.0001568,53.0548,49.6222,91.2763,268.8406,0,U,47803,999,16211,.1816E-3,.2425E-4,0
STARLINK-2387,2021-018V,2024-02-07T18:02:52.576224,15.06403815,.0001641,53.0544,62.6101,97.8825,262.2350,0,U,47806,999,16203,.22491E-3,.307E-4,0
STARLINK-2388,2021-018W,2024-02-07T09:49:54.506496,15.06416248,.0001544,53.0550,39.1376,102.8861,257.2301,0,U,47807,999,16226,.2459E-3,.3385E-4,0
STARLINK-2389,2021-018X,2024-02-07T18:29:24.833184,15.06401645,.0001448,53.0541,62.5189,101.0261,259.0890,0,U,47808,999,16203,.52481E-3,.7544E-4,0
