STARLINK-2196           
1 47773U 21017BD  24038.68611331  .00002263  00000+0  17076-3 0  9991
2 47773  53.0536  37.8933 0001636  74.2327 285.8842 15.06407542162253
STARLINK-2197           
1 47774U 21017BE  24038.68241734  .00003533  00000+0  25582-3 0  9990
2 47774  53.0543  37.9129 0001542  96.9063 263.2101 15.06419183162256
STARLINK-2198           
1 47775U 21017BF  24038.22905398  .00003019  00000+0  22144-3 0  9994
2 47775  53.0544  39.9457 0001426  90.3611 269.7541 15.06406904162876
STARLINK-2210           
1 47777U 21017BH  24038.25945519  .00001545  00000+0  12257-3 0  9994
2 47777  53.0566  29.8072 0001551 101.4410 258.6754 15.06416742162989
STARLINK-2211           
1 47778U 21017BJ  24038.69072392  .00001288  00000+0  10535-3 0  9994
2 47778  53.0542  27.8727 0001370  88.2839 271.8307 15.06397257162402
STARLINK-2213           
1 47780U 21017BL  24038.38478661  .00006703  00000+0  46837-3 0  9993
2 47780  53.0565  29.2487 0001709  91.4648 268.6537 15.06407180163035
STARLINK-2257           
1 47787U 21018A   24038.76812067  .00007063  00000+0  49254-3 0  9991
2 47787  53.0530  67.5238 0001443  91.8048 268.3106 15.06403220161562
STARLINK-2314           
1 47788U 21018B   24038.71329052  .00004902  00000+0  34771-3 0  9991
2 47788  53.0535  42.7731 0001223  87.9332 272.1797 15.06407346161910
STARLINK-2315           
1 47789U 21018C   24038.29816760  .00003033  00000+0  22235-3 0  9998
2 47789  53.0560  49.6367 0001749  86.5862 273.5327 15.06407762162126
STARLINK-2319           
1 47790U 21018D   24038.40597874  .00003292  00000+0  23972-3 0  9991
2 47790  53.0552  39.1520 0001736 103.3600 256.7583 15.06413633162286
STARLINK-2322           
1 47791U 21018E   24038.35898833  .00009516  00000+0  65673-3 0  9994
2 47791  53.0539  69.3656 0001489  78.7084 281.4072 15.06407835161502
STARLINK-2334           
1 47792U 21018F   24038.30553860  .00004383  00000+0  31281-3 0  9993
2 47792  53.0549  49.6050 0001581  95.7423 264.3746 15.06415910162122
STARLINK-2338           
1 47793U 21018G   24038.71836127  .00002181  00000+0  16527-3 0  9999
2 47793  53.0549  47.7532 0001381  81.3898 278.7248 15.06402515161832
STARLINK-2341           
1 47794U 21018H   24038.72204979  .00001652  00000+0  12979-3 0  9994
2 47794  53.0542  47.7288 0001422  78.0040 282.1108 15.06399150161836
STARLINK-2347           
1 47795U 21018J   24038.71099608  .00000702  00000+0  66057-4 0  9997
2 47795  53.0545  47.7822 0001665  81.3132 278.8046 15.06399166161832
STARLINK-2377           
1 47797U 21018L   24038.82848448  .00006335  00000+0  44377-3 0  9993
2 47797  53.0524  72.2576 0001474  76.6017 283.5136 15.06400416161505
STARLINK-2379           
1 47798U 21018M   24038.73679081  .00002612  00000+0  19417-3 0  9990
2 47798  53.0536  47.6694 0001501  80.2270 279.8888 15.06405239161835
STARLINK-2380           
1 47799U 21018N   24038.73310558  .00003596  00000+0  26021-3 0  9993
2 47799  53.0544  47.6834 0001956  95.7540 264.3672 15.06398246161835
STARLINK-2381           
1 47800U 21018P   24038.75522711  .00003734  00000+0  26944-3 0  9992
2 47800  53.0532  47.5870 0001576  77.5596 282.5570 15.06399532161851
STARLINK-2382           
1 47801U 21018Q   24038.72344629  .00005590  00000+0  39402-3 0  9995
2 47801  53.0546  52.8139 0001553  92.0669 268.0498 15.06386765161764
STARLINK-2383           
1 47802U 21018R   24038.37142555  .00009578  00000+0  66083-3 0  9996
2 47802  53.0545  74.3046 0001571  86.6438 273.4730 15.06410553161787
STARLINK-2384           
1 47803U 21018S   24038.30185380  .00002425  00000+0  18160-3 0  9990
2 47803  53.0548  49.6222 0001568  91.2763 268.8406 15.06406976162111
STARLINK-2387           
1 47806U 21018V   24038.75199741  .00003070  00000+0  22491-3 0  9997
2 47806  53.0544  62.6101 0001641  97.8825 262.2350 15.06403815161635
STARLINK-2388           
1 47807U 21018W   24038.40965864  .00003385  00000+0  24590-3 0  9998
2 47807  53.0550  39.1376 0001544 102.8861 257.2301 15.06416248162269
STARLINK-2389           
1 47808U 21018X   24038.77042631  .00007544  00000+0  52481-3 0  9998
2 47808  53.0541  62.5189 0001448 101.0261 259.0890 15.06401645161638
